{"spkid": "50645407", "covariance": {"epoch": "2459053.5", "data": [["1.149699968800547E-15", "-3.234382907452599E-15", "-1.975239436738588E-13", "-1.083889656533484E-13", "1.751588050774257E-13", "-9.540651992982289E-15"], ["-3.234382907452599E-15", "9.20606177798346E-15", "8.928314715075515E-13", "3.480633044967461E-13", "-3.622606568394334E-13", "5.417636364812238E-14"], ["-1.975239436738588E-13", "8.928314715075515E-13", "1.122092066987208E-9", "1.655212118657189E-10", "3.87278781112525E-10", "8.447536978764493E-11"], ["-1.083889656533484E-13", "3.480633044967461E-13", "1.655212118657189E-10", "2.826136434081962E-10", "-2.051934584458262E-10", "-6.570014745534722E-12"], ["1.751588050774257E-13", "-3.622606568394334E-13", "3.87278781112525E-10", "-2.051934584458262E-10", "4.446168229229839E-10", "4.904575284655554E-11"], ["-9.540651992982289E-15", "5.417636364812238E-14", "8.447536978764493E-11", "-6.570014745534722E-12", "4.904575284655554E-11", "3.384229897504516E-11"]], "elements": [{"label": "e", "title": "eccentricity", "value": ".6446828728048745", "units": null, "sigma": 3.39072259083598e-08, "name": "e"}, {"label": "q", "sigma": 9.59482244649866e-08, "name": "q", "units": "au", "value": ".9763909680812779", "title": "perihelion distance"}, {"label": "tp", "units": "TDB", "title": "time of perihelion passage", "value": "2458227.614533478840", "name": "tp", "sigma": 3.34976427079162e-05}, {"label": "node", "sigma": 1.68111166615486e-05, "name": "om", "units": "deg", "title": "longitude of the ascending node", "value": "151.1330924956545"}, {"label": "peri", "units": "deg", "title": "argument of perihelion", "value": "221.4752137165941", "sigma": 2.10859389860396e-05, "name": "w"}, {"label": "i", "title": "inclination", "value": "11.88791248433532", "units": "deg", "name": "i", "sigma": 5.81741342651914e-06}], "labels": ["e", "q", "tp", "node", "peri", "i"]}, "elements": [{"label": "e", "value": ".6443978474770552", "title": "eccentricity", "units": null, "name": "e", "sigma": "3.3943E-8"}, {"label": "a", "name": "a", "sigma": "2.9477E-8", "value": "2.749641652128648", "title": "semi-major axis", "units": "au"}, {"label": "q", "title": "perihelion distance", "value": ".9777784901636936", "units": "au", "sigma": "9.5912E-8", "name": "q"}, {"label": "i", "units": "deg", "title": "inclination; angle with respect to x-y ecliptic plane", "value": "11.87749273913449", "name": "i", "sigma": "5.8122E-6"}, {"name": "om", "sigma": "1.683E-5", "units": "deg", "value": "151.1006286132102", "title": "longitude of the ascending node", "label": "node"}, {"label": "peri", "name": "w", "sigma": "2.1108E-5", "title": "argument of perihelion", "value": "221.5528850780988", "units": "deg"}, {"units": "deg", "title": "mean anomaly", "value": "283.211028196239", "name": "ma", "sigma": "1.7629E-5", "label": "M"}, {"label": "tp", "value": "2461555.729418995386", "title": "time of perihelion passage", "units": "TDB", "name": "tp", "sigma": "8.7257E-5"}, {"label": "period", "title": "sidereal orbital period", "value": "1665.377043531082", "units": "d", "name": "per", "sigma": "2.678E-5"}, {"units": "deg/d", "value": ".2161672645833377", "title": "mean motion", "name": "n", "sigma": "3.476E-9", "label": "n"}, {"label": "Q", "units": "au", "value": "4.521504814093603", "title": "aphelion distance", "sigma": "4.8472E-8", "name": "ad"}], "epoch": "2461200.5"}